0 SL-14 R/B
1 10974U 78067B   13282.33339696  .00000328  00000-0  34380-4 0  1006
2 10974 082.4853 004.1163 0019172 123.1509 302.3716 14.86287112907434
0 SL-14 R/B
1 10974U 78067B   13283.33912468  .00000333  00000-0  34978-4 0  1011
2 10974 082.4853 003.1655 0019212 120.0529 283.4200 14.86287681907586
0 SL-14 R/B
1 10974U 78067B   13286.16577441  .00000319  00000-0  33306-4 0  1033
2 10974 082.4851 000.4934 0019252 111.4199 287.0733 14.86289309908003
0 SL-14 R/B
1 10974U 78067B   13287.17911677  .00000397  00000-0  42177-4 0  1041
2 10974 082.4848 359.5355 0019270 108.3664 308.8066 14.86289552908153
0 SL-14 R/B
1 10974U 78067B   13288.18869554  .00000521  00000-0  56214-4 0  1056
2 10974 082.4846 358.5811 0019263 105.2213 310.5042 14.86291359908304
0 SL-14 R/B
1 10974U 78067B   13289.19866786  .00000401  00000-0  42634-4 0  1061
2 10974 082.4843 357.6264 0019255 102.1503 314.2368 14.86292866908454
0 SL-14 R/B
1 10974U 78067B   13290.20048997  .00000378  00000-0  40067-4 0  1073
2 10974 082.4840 356.6793 0019249 099.1335 274.3405 14.86293578908604
0 SL-14 R/B
1 10974U 78067B   13291.28312183  .00000414  00000-0  44164-4 0  1087
2 10974 082.4838 355.6557 0019206 095.8472 306.8369 14.86294014908769
0 SL-14 R/B
1 10974U 78067B   13292.51049359  .00000427  00000-0  45537-4 0  1096
2 10974 082.4837 354.4952 0019187 092.1161 033.7541 14.86294941908944
0 SL-14 R/B
1 10974U 78067B   13293.79301017  .00000420  00000-0  44819-4 0  1106
2 10974 082.4836 353.2824 0019163 088.1695 055.7677 14.86296337909136
0 SL-14 R/B
1 10974U 78067B   13295.12392757  .00000429  00000-0  45826-4 0  1115
2 10974 082.4835 352.0240 0019120 084.1439 336.6853 14.86297382909339
0 SL-14 R/B
1 10974U 78067B   13296.13338785  .00000455  00000-0  48797-4 0  1128
2 10974 082.4835 351.0694 0019095 081.0879 337.6907 14.86298345909483
